{"type": "FeatureCollection", "features": [ {"type": "Feature", "properties": {"norad_id": 43010, "name": "FENGYUN 3D", "group": "weather", "lat": 12.003683123450084, "lon": -48.16272661016099, "alt_km": 828.3055527876559, "timestamp": "2025-12-13T10:41:25.408455+00:00", "meta": {"OBJECT_NAME": "FENGYUN 3D", "OBJECT_ID": "2017-072A", "EPOCH": "2025-12-13T00:29:04.307136", "MEAN_MOTION": 14.19685218, "ECCENTRICITY": 9.538e-05, "INCLINATION": 98.9894, "RA_OF_ASC_NODE": 313.3345, "ARG_OF_PERICENTER": 181.691, "MEAN_ANOMALY": 178.4262, "EPHEMERIS_TYPE": 0, "CLASSIFICATION_TYPE": "U", "NORAD_CAT_ID": 43010, "ELEMENT_SET_NO": 999, "REV_AT_EPOCH": 41857, "BSTAR": 0.00022227472, "MEAN_MOTION_DOT": 4.24e-06, "MEAN_MOTION_DDOT": 0}, "tle": {"line1": "1 43010U 17072A   25347.02018874  .00000424  00000+0  22227-3 0  9993", "line2": "2 43010  98.9894 313.3345 0000953 181.6910 178.4262 14.19685218418572"}}, "geometry": {"type": "Point", "coordinates": [-48.16272661016099, 12.003683123450084]}}, {"type": "Feature", "properties": {"norad_id": 43013, "name": "NOAA 20 (JPSS-1)", "group": "weather", "lat": 15.490930553663711, "lon": 106.18358790203206, "alt_km": 827.3500994997876, "timestamp": "2025-12-13T10:41:25.408466+00:00", "meta": {"OBJECT_NAME": "NOAA 20 (JPSS-1)", "OBJECT_ID": "2017-073A", "EPOCH": "2025-12-12T22:04:40.586016", "MEAN_MOTION": 14.19525775, "ECCENTRICITY": 0.00021544, "INCLINATION": 98.7598, "RA_OF_ASC_NODE": 283.2147, "ARG_OF_PERICENTER": 86.9536, "MEAN_ANOMALY": 273.1887, "EPHEMERIS_TYPE": 0, "CLASSIFICATION_TYPE": "U", "NORAD_CAT_ID": 43013, "ELEMENT_SET_NO": 999, "REV_AT_EPOCH": 41804, "BSTAR": 9.3629431e-05, "MEAN_MOTION_DOT": 1.53e-06, "MEAN_MOTION_DDOT": 0}, "tle": {"line1": "1 43013U 17073A   25346.91991419  .00000153  00000+0  93629-4 0  9993", "line2": "2 43013  98.7598 283.2147 0002154  86.9536 273.1887 14.19525775418044"}}, "geometry": {"type": "Point", "coordinates": [106.18358790203206, 15.490930553663711]}}, {"type": "Feature", "properties": {"norad_id": 43226, "name": "GOES 17", "group": "weather", "lat": 0.4156591284374279, "lon": 153.2007455699245, "alt_km": 35793.69561630638, "timestamp": "2025-12-13T10:41:25.408497+00:00", "meta": {"OBJECT_NAME": "GOES 17", "OBJECT_ID": "2018-022A", "EPOCH": "2025-12-12T21:36:52.022304", "MEAN_MOTION": 1.00271662, "ECCENTRICITY": 0.00032567, "INCLINATION": 0.4605, "RA_OF_ASC_NODE": 89.1019, "ARG_OF_PERICENTER": 187.759, "MEAN_ANOMALY": 39.7029, "EPHEMERIS_TYPE": 0, "CLASSIFICATION_TYPE": "U", "NORAD_CAT_ID": 43226, "ELEMENT_SET_NO": 999, "REV_AT_EPOCH": 2855, "BSTAR": 0, "MEAN_MOTION_DOT": -1.7e-06, "MEAN_MOTION_DDOT": 0}, "tle": {"line1": "1 43226U 18022A   25346.90060211 -.00000170  00000+0  00000+0 0  9996", "line2": "2 43226   0.4605  89.1019 0003256 187.7590  39.7029  1.00271662 28550"}}, "geometry": {"type": "Point", "coordinates": [153.2007455699245, 0.4156591284374279]}}, {"type": "Feature", "properties": {"norad_id": 43491, "name": "FENGYUN 2H", "group": "weather", "lat": -2.2340855736049665, "lon": -37.90564739704094, "alt_km": 35783.21778185488, "timestamp": "2025-12-13T10:41:25.408511+00:00", "meta": {"OBJECT_NAME": "FENGYUN 2H", "OBJECT_ID": "2018-050A", "EPOCH": "2025-12-13T00:07:48.326880", "MEAN_MOTION": 1.00271214, "ECCENTRICITY": 0.00028022, "INCLINATION": 2.5519, "RA_OF_ASC_NODE": 81.3276, "ARG_OF_PERICENTER": 167, "MEAN_ANOMALY": 274.9264, "EPHEMERIS_TYPE": 0, "CLASSIFICATION_TYPE": "U", "NORAD_CAT_ID": 43491, "ELEMENT_SET_NO": 999, "REV_AT_EPOCH": 2757, "BSTAR": 0, "MEAN_MOTION_DOT": -1.17e-06, "MEAN_MOTION_DDOT": 0}, "tle": {"line1": "1 43491U 18050A   25347.00542045 -.00000117  00000+0  00000+0 0  9994", "line2": "2 43491   2.5519  81.3276 0002802 167.0000 274.9264  1.00271214 27571"}}, "geometry": {"type": "Point", "coordinates": [-37.90564739704094, -2.2340855736049665]}}, {"type": "Feature", "properties": {"norad_id": 43689, "name": "METOP-C", "group": "weather", "lat": -49.15529110516743, "lon": 55.39750010198631, "alt_km": 827.123076941517, "timestamp": "2025-12-13T10:41:25.408522+00:00", "meta": {"OBJECT_NAME": "METOP-C", "OBJECT_ID": "2018-087A", "EPOCH": "2025-12-12T23:05:58.358400", "MEAN_MOTION": 14.2148461, "ECCENTRICITY": 0.00012317, "INCLINATION": 98.6931, "RA_OF_ASC_NODE": 44.7288, "ARG_OF_PERICENTER": 38.7686, "MEAN_ANOMALY": 321.3579, "EPHEMERIS_TYPE": 0, "CLASSIFICATION_TYPE": "U", "NORAD_CAT_ID": 43689, "ELEMENT_SET_NO": 999, "REV_AT_EPOCH": 36837, "BSTAR": 0.00013998288, "MEAN_MOTION_DOT": 2.63e-06, "MEAN_MOTION_DDOT": 0}, "tle": {"line1": "1 43689U 18087A   25346.96248100  .00000263  00000+0  13998-3 0  9997", "line2": "2 43689  98.6931  44.7288 0001231  38.7686 321.3579 14.21484610368374"}}, "geometry": {"type": "Point", "coordinates": [55.39750010198631, -49.15529110516743]}}, {"type": "Feature", "properties": {"norad_id": 43823, "name": "GEO-KOMPSAT-2A", "group": "weather", "lat": -0.03235485923391247, "lon": 10.992568570186915, "alt_km": 35786.35732550313, "timestamp": "2025-12-13T10:41:25.408536+00:00", "meta": {"OBJECT_NAME": "GEO-KOMPSAT-2A", "OBJECT_ID": "2018-100A", "EPOCH": "2025-12-12T22:39:01.067904", "MEAN_MOTION": 1.00273748, "ECCENTRICITY": 4.284e-05, "INCLINATION": 0.0545, "RA_OF_ASC_NODE": 140.9276, "ARG_OF_PERICENTER": 344.7461, "MEAN_ANOMALY": 64.2316, "EPHEMERIS_TYPE": 0, "CLASSIFICATION_TYPE": "U", "NORAD_CAT_ID": 43823, "ELEMENT_SET_NO": 999, "REV_AT_EPOCH": 2576, "BSTAR": 0, "MEAN_MOTION_DOT": -3.31e-06, "MEAN_MOTION_DDOT": 0}, "tle": {"line1": "1 43823U 18100A   25346.94376236 -.00000331  00000+0  00000+0 0  9996", "line2": "2 43823   0.0545 140.9276 0000428 344.7461  64.2316  1.00273748 25762"}}, "geometry": {"type": "Point", "coordinates": [10.992568570186915, -0.03235485923391247]}}, {"type": "Feature", "properties": {"norad_id": 44387, "name": "METEOR-M2 2", "group": "weather", "lat": 30.841344005250928, "lon": -38.184366957448844, "alt_km": 809.5162111800228, "timestamp": "2025-12-13T10:41:25.408548+00:00", "meta": {"OBJECT_NAME": "METEOR-M2 2", "OBJECT_ID": "2019-038A", "EPOCH": "2025-12-13T00:25:41.139264", "MEAN_MOTION": 14.24291553, "ECCENTRICITY": 0.00012545, "INCLINATION": 98.8975, "RA_OF_ASC_NODE": 326.7499, "ARG_OF_PERICENTER": 146.549, "MEAN_ANOMALY": 213.5768, "EPHEMERIS_TYPE": 0, "CLASSIFICATION_TYPE": "U", "NORAD_CAT_ID": 44387, "ELEMENT_SET_NO": 999, "REV_AT_EPOCH": 33479, "BSTAR": 0.0001307679, "MEAN_MOTION_DOT": 2.56e-06, "MEAN_MOTION_DDOT": 0}, "tle": {"line1": "1 44387U 19038A   25347.01783726  .00000256  00000+0  13077-3 0  9995", "line2": "2 44387  98.8975 326.7499 0001254 146.5490 213.5768 14.24291553334799"}}, "geometry": {"type": "Point", "coordinates": [-38.184366957448844, 30.841344005250928]}}, {"type": "Feature", "properties": {"norad_id": 47719, "name": "ARKTIKA-M 1", "group": "weather", "lat": 51.70377216687834, "lon": -135.86605406811944, "alt_km": 27982.959668721003, "timestamp": "2025-12-13T10:41:25.408561+00:00", "meta": {"OBJECT_NAME": "ARKTIKA-M 1", "OBJECT_ID": "2021-016A", "EPOCH": "2025-12-09T14:03:23.859648", "MEAN_MOTION": 2.00631311, "ECCENTRICITY": 0.7202538, "INCLINATION": 63.1769, "RA_OF_ASC_NODE": 84.4506, "ARG_OF_PERICENTER": 269.1116, "MEAN_ANOMALY": 15.6235, "EPHEMERIS_TYPE": 0, "CLASSIFICATION_TYPE": "U", "NORAD_CAT_ID": 47719, "ELEMENT_SET_NO": 999, "REV_AT_EPOCH": 3498, "BSTAR": 0, "MEAN_MOTION_DOT": -6.1e-07, "MEAN_MOTION_DDOT": 0}, "tle": {"line1": "1 47719U 21016A   25343.58569282 -.00000061  00000+0  00000+0 0  9996", "line2": "2 47719  63.1769  84.4506 7202538 269.1116  15.6235  2.00631311 34985"}}, "geometry": {"type": "Point", "coordinates": [-135.86605406811944, 51.70377216687834]}}, {"type": "Feature", "properties": {"norad_id": 49008, "name": "FENGYUN 3E", "group": "weather", "lat": -20.40216540438434, "lon": -8.75882735782573, "alt_km": 830.8053031147128, "timestamp": "2025-12-13T10:41:25.408590+00:00", "meta": {"OBJECT_NAME": "FENGYUN 3E", "OBJECT_ID": "2021-062A", "EPOCH": "2025-12-13T00:38:24.072000", "MEAN_MOTION": 14.19879675, "ECCENTRICITY": 5.473e-05, "INCLINATION": 98.7481, "RA_OF_ASC_NODE": 347.5442, "ARG_OF_PERICENTER": 266.1344, "MEAN_ANOMALY": 93.977, "EPHEMERIS_TYPE": 0, "CLASSIFICATION_TYPE": "U", "NORAD_CAT_ID": 49008, "ELEMENT_SET_NO": 999, "REV_AT_EPOCH": 23016, "BSTAR": -1.663791e-06, "MEAN_MOTION_DOT": -4.7e-07, "MEAN_MOTION_DDOT": 0}, "tle": {"line1": "1 49008U 21062A   25347.02666750 -.00000047  00000+0 -16638-5 0  9996", "line2": "2 49008  98.7481 347.5442 0000547 266.1344  93.9770 14.19879675230165"}}, "geometry": {"type": "Point", "coordinates": [-8.75882735782573, -20.40216540438434]}}, {"type": "Feature", "properties": {"norad_id": 51850, "name": "GOES 18", "group": "weather", "lat": -0.007059069459891677, "lon": 105.73174214336117, "alt_km": 35788.345853883366, "timestamp": "2025-12-13T10:41:25.408640+00:00", "meta": {"OBJECT_NAME": "GOES 18", "OBJECT_ID": "2022-021A", "EPOCH": "2025-12-12T23:06:09.232704", "MEAN_MOTION": 1.0027199, "ECCENTRICITY": 6.155e-05, "INCLINATION": 0.0366, "RA_OF_ASC_NODE": 177.2443, "ARG_OF_PERICENTER": 132.6146, "MEAN_ANOMALY": 341.5837, "EPHEMERIS_TYPE": 0, "CLASSIFICATION_TYPE": "U", "NORAD_CAT_ID": 51850, "ELEMENT_SET_NO": 999, "REV_AT_EPOCH": 472, "BSTAR": 0, "MEAN_MOTION_DOT": 1.09e-06, "MEAN_MOTION_DDOT": 0}, "tle": {"line1": "1 51850U 22021A   25346.96260686  .00000109  00000+0  00000+0 0  9997", "line2": "2 51850   0.0366 177.2443 0000615 132.6146 341.5837  1.00271990  4722"}}, "geometry": {"type": "Point", "coordinates": [105.73174214336117, -0.007059069459891677]}}]}